STARLINK-5935           
1 56453U 23064F   26065.48896942  .00001516  00000+0  13484-3 0  9992
2 56453  70.0019 152.6509 0003127 268.8312  91.2489 14.98335374154766
STARLINK-5959           
1 56454U 23064G   26065.53485918 -.00000203  00000+0 -92495-5 0  9991
2 56454  70.0007 152.4075 0002815 259.9836 100.1005 14.98337524154779
STARLINK-5987           
1 56455U 23064H   26064.19599303 -.00065940  00000+0 -56466-2 0  9991
2 56455  70.0008 155.7602 0002527 130.2286 229.9094 14.97807846154577
STARLINK-5995           
1 56456U 23064J   26065.40968979  .00000516  00000+0  51066-4 0  9995
2 56456  70.0003 152.7725 0003221 273.9237  86.1554 14.98333342154759
STARLINK-5994           
1 56457U 23064K   26065.40551907 -.00000790  00000+0 -58439-4 0  9992
2 56457  70.0017 152.7591 0002798 265.1876  94.8964 14.98327359154758
STARLINK-6050           
1 56458U 23064L   26065.41390266  .00007984  00000+0  67609-3 0  9991
2 56458  70.0005 152.7887 0003734 179.5291 180.5872 14.98330599154755
STARLINK-6048           
1 56459U 23064M   26065.38063976  .00000098  00000+0  16049-4 0  9995
2 56459  70.0002 152.6711 0003354 267.5300  92.5476 14.98330734154747
STARLINK-6047           
1 56460U 23064N   26065.39299468  .00000390  00000+0  40444-4 0  9996
2 56460  70.0005 152.7139 0003090 271.3303  88.7502 14.98330906154759
STARLINK-6037           
1 56461U 23064P   26065.50981483 -.00002036  00000+0 -16279-3 0  9994
2 56461  69.9996 152.3172 0003390 269.9303  90.1468 14.98342320154778
STARLINK-6045           
1 56462U 23064Q   26065.53038075 -.00000569  00000+0 -39885-4 0  9996
2 56462  69.9995 112.2225 0003502 270.7495  89.3263 14.98329578155762
STARLINK-6051           
1 56463U 23064R   26065.35127856  .00000679  00000+0  64666-4 0  9998
2 56463  70.0022 152.9654 0002782 259.3395 100.7451 14.98332045154742
STARLINK-6043           
1 56464U 23064S   26065.52233737  .00000713  00000+0  67499-4 0  9990
2 56464  70.0002 152.3625 0003324 267.7945  92.2833 14.98334127154775
STARLINK-6054           
1 56465U 23064T   26065.53855991  .00000618  00000+0  59574-4 0  9993
2 56465  69.9995 112.2461 0003087 271.2634  88.8171 14.98332826155768
STARLINK-6053           
1 56466U 23064U   26065.38046308 -.00000310  00000+0 -18175-4 0  9994
2 56466  70.0010 152.6694 0004472 308.6572  51.4186 14.98329454154754
STARLINK-6055           
1 56467U 23064V   26065.33435819 -.00000113  00000+0 -16479-5 0  9996
2 56467  70.0001 133.0422 0003094 271.6044  88.4761 14.98333154155234
STARLINK-5998           
1 56468U 23064W   26065.50560225  .00004803  00000+0  40956-3 0  9999
2 56468  70.0013 152.3029 0003132 263.0386  97.0417 14.98373406154778
