[{"OBJECT_NAME":"STARLINK-5935","OBJECT_ID":"2023-064F","EPOCH":"2026-03-06T11:44:06.957888","MEAN_MOTION":14.98335374,"ECCENTRICITY":0.00031273,"INCLINATION":70.0019,"RA_OF_ASC_NODE":152.6509,"ARG_OF_PERICENTER":268.8312,"MEAN_ANOMALY":91.2489,"EPHEMERIS_TYPE":0,"CLASSIFICATION_TYPE":"U","NORAD_CAT_ID":56453,"ELEMENT_SET_NO":999,"REV_AT_EPOCH":15476,"BSTAR":0.00013484018,"MEAN_MOTION_DOT":1.516e-5,"MEAN_MOTION_DDOT":0},{"OBJECT_NAME":"STARLINK-5959","OBJECT_ID":"2023-064G","EPOCH":"2026-03-06T12:50:11.833152","MEAN_MOTION":14.98337524,"ECCENTRICITY":0.00028152,"INCLINATION":70.0007,"RA_OF_ASC_NODE":152.4075,"ARG_OF_PERICENTER":259.9836,"MEAN_ANOMALY":100.1005,"EPHEMERIS_TYPE":0,"CLASSIFICATION_TYPE":"U","NORAD_CAT_ID":56454,"ELEMENT_SET_NO":999,"REV_AT_EPOCH":15477,"BSTAR":-9.249505e-6,"MEAN_MOTION_DOT":-2.03e-6,"MEAN_MOTION_DDOT":0},{"OBJECT_NAME":"STARLINK-5987","OBJECT_ID":"2023-064H","EPOCH":"2026-03-05T04:42:13.797792","MEAN_MOTION":14.97807846,"ECCENTRICITY":0.00025275,"INCLINATION":70.0008,"RA_OF_ASC_NODE":155.7602,"ARG_OF_PERICENTER":130.2286,"MEAN_ANOMALY":229.9094,"EPHEMERIS_TYPE":0,"CLASSIFICATION_TYPE":"U","NORAD_CAT_ID":56455,"ELEMENT_SET_NO":999,"REV_AT_EPOCH":15457,"BSTAR":-0.0056465667,"MEAN_MOTION_DOT":-0.0006594,"MEAN_MOTION_DDOT":0},{"OBJECT_NAME":"STARLINK-5995","OBJECT_ID":"2023-064J","EPOCH":"2026-03-06T09:49:57.197856","MEAN_MOTION":14.98333342,"ECCENTRICITY":0.00032219,"INCLINATION":70.0003,"RA_OF_ASC_NODE":152.7725,"ARG_OF_PERICENTER":273.9237,"MEAN_ANOMALY":86.1554,"EPHEMERIS_TYPE":0,"CLASSIFICATION_TYPE":"U","NORAD_CAT_ID":56456,"ELEMENT_SET_NO":999,"REV_AT_EPOCH":15475,"BSTAR":5.106619e-5,"MEAN_MOTION_DOT":5.16e-6,"MEAN_MOTION_DDOT":0},{"OBJECT_NAME":"STARLINK-5994","OBJECT_ID":"2023-064K","EPOCH":"2026-03-06T09:43:56.847648","MEAN_MOTION":14.98327359,"ECCENTRICITY":0.00027981,"INCLINATION":70.0017,"RA_OF_ASC_NODE":152.7591,"ARG_OF_PERICENTER":265.1876,"MEAN_ANOMALY":94.8964,"EPHEMERIS_TYPE":0,"CLASSIFICATION_TYPE":"U","NORAD_CAT_ID":56457,"ELEMENT_SET_NO":999,"REV_AT_EPOCH":15475,"BSTAR":-5.843883e-5,"MEAN_MOTION_DOT":-7.9e-6,"MEAN_MOTION_DDOT":0},{"OBJECT_NAME":"STARLINK-6050","OBJECT_ID":"2023-064L","EPOCH":"2026-03-06T09:56:01.189824","MEAN_MOTION":14.98330599,"ECCENTRICITY":0.00037345,"INCLINATION":70.0005,"RA_OF_ASC_NODE":152.7887,"ARG_OF_PERICENTER":179.5291,"MEAN_ANOMALY":180.5872,"EPHEMERIS_TYPE":0,"CLASSIFICATION_TYPE":"U","NORAD_CAT_ID":56458,"ELEMENT_SET_NO":999,"REV_AT_EPOCH":15475,"BSTAR":0.00067608911,"MEAN_MOTION_DOT":7.984e-5,"MEAN_MOTION_DDOT":0},{"OBJECT_NAME":"STARLINK-6048","OBJECT_ID":"2023-064M","EPOCH":"2026-03-06T09:08:07.275264","MEAN_MOTION":14.98330734,"ECCENTRICITY":0.00033544,"INCLINATION":70.0002,"RA_OF_ASC_NODE":152.6711,"ARG_OF_PERICENTER":267.53,"MEAN_ANOMALY":92.5476,"EPHEMERIS_TYPE":0,"CLASSIFICATION_TYPE":"U","NORAD_CAT_ID":56459,"ELEMENT_SET_NO":999,"REV_AT_EPOCH":15474,"BSTAR":1.6048642e-5,"MEAN_MOTION_DOT":9.8e-7,"MEAN_MOTION_DDOT":0},{"OBJECT_NAME":"STARLINK-6047","OBJECT_ID":"2023-064N","EPOCH":"2026-03-06T09:25:54.740352","MEAN_MOTION":14.98330906,"ECCENTRICITY":0.00030909,"INCLINATION":70.0005,"RA_OF_ASC_NODE":152.7139,"ARG_OF_PERICENTER":271.3303,"MEAN_ANOMALY":88.7502,"EPHEMERIS_TYPE":0,"CLASSIFICATION_TYPE":"U","NORAD_CAT_ID":56460,"ELEMENT_SET_NO":999,"REV_AT_EPOCH":15475,"BSTAR":4.0444271e-5,"MEAN_MOTION_DOT":3.9e-6,"MEAN_MOTION_DDOT":0},{"OBJECT_NAME":"STARLINK-6037","OBJECT_ID":"2023-064P","EPOCH":"2026-03-06T12:14:08.001312","MEAN_MOTION":14.9834232,"ECCENTRICITY":0.00033905,"INCLINATION":69.9996,"RA_OF_ASC_NODE":152.3172,"ARG_OF_PERICENTER":269.9303,"MEAN_ANOMALY":90.1468,"EPHEMERIS_TYPE":0,"CLASSIFICATION_TYPE":"U","NORAD_CAT_ID":56461,"ELEMENT_SET_NO":999,"REV_AT_EPOCH":15477,"BSTAR":-0.00016279304,"MEAN_MOTION_DOT":-2.036e-5,"MEAN_MOTION_DDOT":0},{"OBJECT_NAME":"STARLINK-6045","OBJECT_ID":"2023-064Q","EPOCH":"2026-03-06T12:43:44.896800","MEAN_MOTION":14.98329578,"ECCENTRICITY":0.00035023,"INCLINATION":69.9995,"RA_OF_ASC_NODE":112.2225,"ARG_OF_PERICENTER":270.7495,"MEAN_ANOMALY":89.3263,"EPHEMERIS_TYPE":0,"CLASSIFICATION_TYPE":"U","NORAD_CAT_ID":56462,"ELEMENT_SET_NO":999,"REV_AT_EPOCH":15576,"BSTAR":-3.9884712e-5,"MEAN_MOTION_DOT":-5.69e-6,"MEAN_MOTION_DDOT":0},{"OBJECT_NAME":"STARLINK-6051","OBJECT_ID":"2023-064R","EPOCH":"2026-03-06T08:25:50.467584","MEAN_MOTION":14.98332045,"ECCENTRICITY":0.00027827,"INCLINATION":70.0022,"RA_OF_ASC_NODE":152.9654,"ARG_OF_PERICENTER":259.3395,"MEAN_ANOMALY":100.7451,"EPHEMERIS_TYPE":0,"CLASSIFICATION_TYPE":"U","NORAD_CAT_ID":56463,"ELEMENT_SET_NO":999,"REV_AT_EPOCH":15474,"BSTAR":6.4666243e-5,"MEAN_MOTION_DOT":6.79e-6,"MEAN_MOTION_DDOT":0},{"OBJECT_NAME":"STARLINK-6043","OBJECT_ID":"2023-064S","EPOCH":"2026-03-06T12:32:09.948768","MEAN_MOTION":14.98334127,"ECCENTRICITY":0.00033246,"INCLINATION":70.0002,"RA_OF_ASC_NODE":152.3625,"ARG_OF_PERICENTER":267.7945,"MEAN_ANOMALY":92.2833,"EPHEMERIS_TYPE":0,"CLASSIFICATION_TYPE":"U","NORAD_CAT_ID":56464,"ELEMENT_SET_NO":999,"REV_AT_EPOCH":15477,"BSTAR":6.7498651e-5,"MEAN_MOTION_DOT":7.13e-6,"MEAN_MOTION_DDOT":0},{"OBJECT_NAME":"STARLINK-6054","OBJECT_ID":"2023-064T","EPOCH":"2026-03-06T12:55:31.576224","MEAN_MOTION":14.98332826,"ECCENTRICITY":0.00030875,"INCLINATION":69.9995,"RA_OF_ASC_NODE":112.2461,"ARG_OF_PERICENTER":271.2634,"MEAN_ANOMALY":88.8171,"EPHEMERIS_TYPE":0,"CLASSIFICATION_TYPE":"U","NORAD_CAT_ID":56465,"ELEMENT_SET_NO":999,"REV_AT_EPOCH":15576,"BSTAR":5.9574007e-5,"MEAN_MOTION_DOT":6.18e-6,"MEAN_MOTION_DDOT":0},{"OBJECT_NAME":"STARLINK-6053","OBJECT_ID":"2023-064U","EPOCH":"2026-03-06T09:07:52.010112","MEAN_MOTION":14.98329454,"ECCENTRICITY":0.00044725,"INCLINATION":70.001,"RA_OF_ASC_NODE":152.6694,"ARG_OF_PERICENTER":308.6572,"MEAN_ANOMALY":51.4186,"EPHEMERIS_TYPE":0,"CLASSIFICATION_TYPE":"U","NORAD_CAT_ID":56466,"ELEMENT_SET_NO":999,"REV_AT_EPOCH":15475,"BSTAR":-1.8174965e-5,"MEAN_MOTION_DOT":-3.1e-6,"MEAN_MOTION_DDOT":0},{"OBJECT_NAME":"STARLINK-6055","OBJECT_ID":"2023-064V","EPOCH":"2026-03-06T08:01:28.547616","MEAN_MOTION":14.98333154,"ECCENTRICITY":0.00030941,"INCLINATION":70.0001,"RA_OF_ASC_NODE":133.0422,"ARG_OF_PERICENTER":271.6044,"MEAN_ANOMALY":88.4761,"EPHEMERIS_TYPE":0,"CLASSIFICATION_TYPE":"U","NORAD_CAT_ID":56467,"ELEMENT_SET_NO":999,"REV_AT_EPOCH":15523,"BSTAR":-1.647874e-6,"MEAN_MOTION_DOT":-1.13e-6,"MEAN_MOTION_DDOT":0},{"OBJECT_NAME":"STARLINK-5998","OBJECT_ID":"2023-064W","EPOCH":"2026-03-06T12:08:04.034400","MEAN_MOTION":14.98373406,"ECCENTRICITY":0.00031327,"INCLINATION":70.0013,"RA_OF_ASC_NODE":152.3029,"ARG_OF_PERICENTER":263.0386,"MEAN_ANOMALY":97.0417,"EPHEMERIS_TYPE":0,"CLASSIFICATION_TYPE":"U","NORAD_CAT_ID":56468,"ELEMENT_SET_NO":999,"REV_AT_EPOCH":15477,"BSTAR":0.00040955687,"MEAN_MOTION_DOT":4.803e-5,"MEAN_MOTION_DDOT":0}]
